{"type": "FeatureCollection", "features": [ {"type": "Feature", "properties": {"norad_id": 35016, "name": "COSMOS 2251 DEB", "group": "cosmos-2251-debris", "lat": 55.93413223732104, "lon": 105.94841090906546, "alt_km": 796.0711648749093, "timestamp": "2025-12-03T15:48:03.461954+00:00", "meta": {"OBJECT_NAME": "COSMOS 2251 DEB", "OBJECT_ID": "1993-036AGD", "EPOCH": "2025-12-03T07:10:41.255040", "MEAN_MOTION": 14.35026895, "ECCENTRICITY": 0.01150065, "INCLINATION": 73.9297, "RA_OF_ASC_NODE": 311.8444, "ARG_OF_PERICENTER": 230.7623, "MEAN_ANOMALY": 195.5126, "EPHEMERIS_TYPE": 0, "CLASSIFICATION_TYPE": "U", "NORAD_CAT_ID": 35016, "ELEMENT_SET_NO": 999, "REV_AT_EPOCH": 86647, "BSTAR": 0.00055990928, "MEAN_MOTION_DOT": 1.691e-05, "MEAN_MOTION_DDOT": 0}, "tle": {"line1": "1 35016U 93036AGD 25337.29908860  .00001691  00000+0  55991-3 0  9996", "line2": "2 35016  73.9297 311.8444 0115006 230.7623 195.5126 14.35026895866478"}}, "geometry": {"type": "Point", "coordinates": [105.94841090906546, 55.93413223732104]}}, {"type": "Feature", "properties": {"norad_id": 35018, "name": "COSMOS 2251 DEB", "group": "cosmos-2251-debris", "lat": -72.43910030088526, "lon": 59.69354215672663, "alt_km": 1134.1768540578578, "timestamp": "2025-12-03T15:48:03.461963+00:00", "meta": {"OBJECT_NAME": "COSMOS 2251 DEB", "OBJECT_ID": "1993-036AGF", "EPOCH": "2025-12-03T03:54:20.705760", "MEAN_MOTION": 13.67087707, "ECCENTRICITY": 0.03484354, "INCLINATION": 73.9755, "RA_OF_ASC_NODE": 125.7528, "ARG_OF_PERICENTER": 37.0273, "MEAN_ANOMALY": 325.4344, "EPHEMERIS_TYPE": 0, "CLASSIFICATION_TYPE": "U", "NORAD_CAT_ID": 35018, "ELEMENT_SET_NO": 999, "REV_AT_EPOCH": 83055, "BSTAR": 0.001039048, "MEAN_MOTION_DOT": 1.303e-05, "MEAN_MOTION_DDOT": 0}, "tle": {"line1": "1 35018U 93036AGF 25337.16273965  .00001303  00000+0  10390-2 0  9998", "line2": "2 35018  73.9755 125.7528 0348435  37.0273 325.4344 13.67087707830556"}}, "geometry": {"type": "Point", "coordinates": [59.69354215672663, -72.43910030088526]}}, {"type": "Feature", "properties": {"norad_id": 35020, "name": "COSMOS 2251 DEB", "group": "cosmos-2251-debris", "lat": 30.53255755673004, "lon": -133.94233364730138, "alt_km": 648.966524524667, "timestamp": "2025-12-03T15:48:03.461972+00:00", "meta": {"OBJECT_NAME": "COSMOS 2251 DEB", "OBJECT_ID": "1993-036AGH", "EPOCH": "2025-12-03T02:31:35.390208", "MEAN_MOTION": 14.6277767, "ECCENTRICITY": 0.00911506, "INCLINATION": 74.049, "RA_OF_ASC_NODE": 217.4049, "ARG_OF_PERICENTER": 333.8786, "MEAN_ANOMALY": 25.7795, "EPHEMERIS_TYPE": 0, "CLASSIFICATION_TYPE": "U", "NORAD_CAT_ID": 35020, "ELEMENT_SET_NO": 999, "REV_AT_EPOCH": 88097, "BSTAR": 0.00024246139, "MEAN_MOTION_DOT": 1.279e-05, "MEAN_MOTION_DDOT": 0}, "tle": {"line1": "1 35020U 93036AGH 25337.10527072  .00001279  00000+0  24246-3 0  9994", "line2": "2 35020  74.0490 217.4049 0091150 333.8786  25.7795 14.62777670880971"}}, "geometry": {"type": "Point", "coordinates": [-133.94233364730138, 30.53255755673004]}}, {"type": "Feature", "properties": {"norad_id": 35022, "name": "COSMOS 2251 DEB", "group": "cosmos-2251-debris", "lat": 31.12552077996143, "lon": 149.33594832605675, "alt_km": 660.9546607864313, "timestamp": "2025-12-03T15:48:03.461981+00:00", "meta": {"OBJECT_NAME": "COSMOS 2251 DEB", "OBJECT_ID": "1993-036AGK", "EPOCH": "2025-12-02T17:45:34.658208", "MEAN_MOTION": 14.60763876, "ECCENTRICITY": 0.00472905, "INCLINATION": 74.0262, "RA_OF_ASC_NODE": 341.0512, "ARG_OF_PERICENTER": 183.6288, "MEAN_ANOMALY": 176.4543, "EPHEMERIS_TYPE": 0, "CLASSIFICATION_TYPE": "U", "NORAD_CAT_ID": 35022, "ELEMENT_SET_NO": 999, "REV_AT_EPOCH": 58997, "BSTAR": 0.00056913021, "MEAN_MOTION_DOT": 2.791e-05, "MEAN_MOTION_DDOT": 0}, "tle": {"line1": "1 35022U 93036AGK 25336.73998447  .00002791  00000+0  56913-3 0  9998", "line2": "2 35022  74.0262 341.0512 0047290 183.6288 176.4543 14.60763876589975"}}, "geometry": {"type": "Point", "coordinates": [149.33594832605675, 31.12552077996143]}}, {"type": "Feature", "properties": {"norad_id": 35023, "name": "COSMOS 2251 DEB", "group": "cosmos-2251-debris", "lat": -64.92274514847449, "lon": -166.81320800878456, "alt_km": 568.0053589324752, "timestamp": "2025-12-03T15:48:03.461990+00:00", "meta": {"OBJECT_NAME": "COSMOS 2251 DEB", "OBJECT_ID": "1993-036AGL", "EPOCH": "2025-12-03T03:56:01.944960", "MEAN_MOTION": 14.94570592, "ECCENTRICITY": 0.00345556, "INCLINATION": 74.0389, "RA_OF_ASC_NODE": 231.8891, "ARG_OF_PERICENTER": 311.6076, "MEAN_ANOMALY": 198.8445, "EPHEMERIS_TYPE": 0, "CLASSIFICATION_TYPE": "U", "NORAD_CAT_ID": 35023, "ELEMENT_SET_NO": 999, "REV_AT_EPOCH": 88136, "BSTAR": 0.0023721415, "MEAN_MOTION_DOT": 0.00026024, "MEAN_MOTION_DDOT": 0}, "tle": {"line1": "1 35023U 93036AGL 25337.16391140  .00026024  00000+0  23721-2 0  9999", "line2": "2 35023  74.0389 231.8891 0034555 311.6076 198.8445 14.94570592881365"}}, "geometry": {"type": "Point", "coordinates": [-166.81320800878456, -64.92274514847449]}}, {"type": "Feature", "properties": {"norad_id": 35025, "name": "COSMOS 2251 DEB", "group": "cosmos-2251-debris", "lat": 9.190476616786963, "lon": 83.38908341809325, "alt_km": 596.2868332814933, "timestamp": "2025-12-03T15:48:03.461999+00:00", "meta": {"OBJECT_NAME": "COSMOS 2251 DEB", "OBJECT_ID": "1993-036AGN", "EPOCH": "2025-12-03T01:05:05.186688", "MEAN_MOTION": 14.72628151, "ECCENTRICITY": 0.00846667, "INCLINATION": 73.9382, "RA_OF_ASC_NODE": 81.9179, "ARG_OF_PERICENTER": 356.9044, "MEAN_ANOMALY": 3.1592, "EPHEMERIS_TYPE": 0, "CLASSIFICATION_TYPE": "U", "NORAD_CAT_ID": 35025, "ELEMENT_SET_NO": 999, "REV_AT_EPOCH": 88500, "BSTAR": 0.00048771001, "MEAN_MOTION_DOT": 3.252e-05, "MEAN_MOTION_DDOT": 0}, "tle": {"line1": "1 35025U 93036AGN 25337.04519892  .00003252  00000+0  48771-3 0  9995", "line2": "2 35025  73.9382  81.9179 0084666 356.9044   3.1592 14.72628151885003"}}, "geometry": {"type": "Point", "coordinates": [83.38908341809325, 9.190476616786963]}}, {"type": "Feature", "properties": {"norad_id": 35026, "name": "COSMOS 2251 DEB", "group": "cosmos-2251-debris", "lat": 35.43513642349067, "lon": 144.20206523085778, "alt_km": 673.9571734089704, "timestamp": "2025-12-03T15:48:03.462008+00:00", "meta": {"OBJECT_NAME": "COSMOS 2251 DEB", "OBJECT_ID": "1993-036AGP", "EPOCH": "2025-12-02T18:29:37.928832", "MEAN_MOTION": 14.53613384, "ECCENTRICITY": 0.00822592, "INCLINATION": 74.0462, "RA_OF_ASC_NODE": 337.6224, "ARG_OF_PERICENTER": 93.9267, "MEAN_ANOMALY": 84.2291, "EPHEMERIS_TYPE": 0, "CLASSIFICATION_TYPE": "U", "NORAD_CAT_ID": 35026, "ELEMENT_SET_NO": 999, "REV_AT_EPOCH": 87998, "BSTAR": 8.1430616e-05, "MEAN_MOTION_DOT": 3.26e-06, "MEAN_MOTION_DDOT": 0}, "tle": {"line1": "1 35026U 93036AGP 25336.77057788  .00000326  00000+0  81431-4 0  9996", "line2": "2 35026  74.0462 337.6224 0082259  93.9267  84.2291 14.53613384879985"}}, "geometry": {"type": "Point", "coordinates": [144.20206523085778, 35.43513642349067]}}, {"type": "Feature", "properties": {"norad_id": 35028, "name": "COSMOS 2251 DEB", "group": "cosmos-2251-debris", "lat": 19.613733394434647, "lon": 102.35914812291378, "alt_km": 708.716919290383, "timestamp": "2025-12-03T15:48:03.462017+00:00", "meta": {"OBJECT_NAME": "COSMOS 2251 DEB", "OBJECT_ID": "1993-036AGR", "EPOCH": "2025-12-03T07:31:08.251680", "MEAN_MOTION": 14.56553316, "ECCENTRICITY": 0.00821927, "INCLINATION": 74.0379, "RA_OF_ASC_NODE": 288.8678, "ARG_OF_PERICENTER": 65.1818, "MEAN_ANOMALY": 84.6032, "EPHEMERIS_TYPE": 0, "CLASSIFICATION_TYPE": "U", "NORAD_CAT_ID": 35028, "ELEMENT_SET_NO": 999, "REV_AT_EPOCH": 88148, "BSTAR": 0.00016513418, "MEAN_MOTION_DOT": 7.39e-06, "MEAN_MOTION_DDOT": 0}, "tle": {"line1": "1 35028U 93036AGR 25337.31328995  .00000739  00000+0  16513-3 0  9996", "line2": "2 35028  74.0379 288.8678 0082192  65.1818  84.6032 14.56553316881489"}}, "geometry": {"type": "Point", "coordinates": [102.35914812291378, 19.613733394434647]}}, {"type": "Feature", "properties": {"norad_id": 35031, "name": "COSMOS 2251 DEB", "group": "cosmos-2251-debris", "lat": -50.5914741581802, "lon": -104.39138533912133, "alt_km": 765.139025255743, "timestamp": "2025-12-03T15:48:03.462025+00:00", "meta": {"OBJECT_NAME": "COSMOS 2251 DEB", "OBJECT_ID": "1993-036AGU", "EPOCH": "2025-12-03T02:41:37.542912", "MEAN_MOTION": 14.38274167, "ECCENTRICITY": 0.00184369, "INCLINATION": 74.0383, "RA_OF_ASC_NODE": 276.9995, "ARG_OF_PERICENTER": 12.5533, "MEAN_ANOMALY": 347.6077, "EPHEMERIS_TYPE": 0, "CLASSIFICATION_TYPE": "U", "NORAD_CAT_ID": 35031, "ELEMENT_SET_NO": 999, "REV_AT_EPOCH": 65145, "BSTAR": 0.00026325314, "MEAN_MOTION_DOT": 7.76e-06, "MEAN_MOTION_DDOT": 0}, "tle": {"line1": "1 35031U 93036AGU 25337.11224008  .00000776  00000+0  26325-3 0  9991", "line2": "2 35031  74.0383 276.9995 0018436  12.5533 347.6077 14.38274167651455"}}, "geometry": {"type": "Point", "coordinates": [-104.39138533912133, -50.5914741581802]}}, {"type": "Feature", "properties": {"norad_id": 35032, "name": "COSMOS 2251 DEB", "group": "cosmos-2251-debris", "lat": -43.89577013979712, "lon": -139.04491531636617, "alt_km": 656.193476589433, "timestamp": "2025-12-03T15:48:03.462034+00:00", "meta": {"OBJECT_NAME": "COSMOS 2251 DEB", "OBJECT_ID": "1993-036AGV", "EPOCH": "2025-12-03T03:23:36.974688", "MEAN_MOTION": 14.58586985, "ECCENTRICITY": 0.00689454, "INCLINATION": 73.8527, "RA_OF_ASC_NODE": 25.7636, "ARG_OF_PERICENTER": 238.5803, "MEAN_ANOMALY": 154.2077, "EPHEMERIS_TYPE": 0, "CLASSIFICATION_TYPE": "U", "NORAD_CAT_ID": 35032, "ELEMENT_SET_NO": 999, "REV_AT_EPOCH": 87534, "BSTAR": 0.0014295632, "MEAN_MOTION_DOT": 6.849e-05, "MEAN_MOTION_DDOT": 0}, "tle": {"line1": "1 35032U 93036AGV 25337.14140017  .00006849  00000+0  14296-2 0  9992", "line2": "2 35032  73.8527  25.7636 0068945 238.5803 154.2077 14.58586985875349"}}, "geometry": {"type": "Point", "coordinates": [-139.04491531636617, -43.89577013979712]}}]}